QIANFAN-17              
1 60395U 24140S   26004.47168021  .00000179  00000+0  25751-3 0  9994
2 60395  88.9790 297.0869 0015808 134.0024 226.2433 13.50982496 71202
QIANFAN-18              
1 60396U 24140T   26004.52515876  .00000170  00000+0  24459-3 0  9990
2 60396  88.9782 296.6133 0015592 117.5297 242.7441 13.50982521 70605
QIANFAN-19              
1 61552U 24185A   26004.50802306  .00000690  00000+0  35414-3 0  9999
2 61552  88.9804  75.3360 0005700 215.3831 144.6978 14.14323262 72889
QIANFAN-20              
1 61553U 24185B   26004.48655914  .00000801  00000+0  45579-3 0  9995
2 61553  88.9803  75.6852 0003749 268.8299  91.2455 14.08870621 72695
QIANFAN-21              
1 61554U 24185C   26004.46955273  .00000928  00000+0  40882-3 0  9997
2 61554  88.9719  74.3206 0008414 292.1092  67.9206 14.22643991 73202
QIANFAN-22              
1 61555U 24185D   26004.52597223  .00000259  00000+0  21242-3 0  9998
2 61555  88.9787  76.7534 0004391 289.9171  70.1526 13.86312955 72099
QIANFAN-23              
1 61556U 24185E   26004.52200715  .00000681  00000+0  33623-3 0  9991
2 61556  88.9795  75.1333 0006005 230.7055 129.3601 14.16318480 72979
QIANFAN-24              
1 61557U 24185F   26004.52335575  .00000922  00000+0  39666-3 0  9996
2 61557  88.9777  74.5007 0008358 211.3048 148.7647 14.23845276 73265
